IRIDIUM 159             
1 43578U 18061K   25310.29581426  .00000024  00000+0  13811-5 0  9995
2 43578  86.3974 149.8930 0002242  88.3107 271.8346 14.34218044381438
IRIDIUM 180             
1 43922U 19002A   25310.29531220  .00000061  00000+0  14710-4 0  9990
2 43922  86.3938  86.7775 0002237  89.0051 271.1401 14.34217278357040
IRIDIUM 176             
1 43923U 19002B   25310.08897449  .00001471  00000+0  22938-3 0  9992
2 43923  86.6063  86.8400 0001687  80.0119 280.1288 14.72259467366426
IRIDIUM 168             
1 43924U 19002C   25310.07966364  .00000130  00000+0  39293-4 0  9999
2 43924  86.3940  86.9389 0002091  90.9518 269.1918 14.34218133356999
IRIDIUM 173             
1 43925U 19002D   25310.13674719  .00000109  00000+0  31724-4 0  9994
2 43925  86.3937  86.8130 0002090  87.9337 272.2099 14.34217882356987
IRIDIUM 169             
1 43926U 19002E   25309.97822045  .00000148  00000+0  41841-4 0  9996
2 43926  86.4195 118.5301 0001741  53.6196 306.5163 14.38607930358136
IRIDIUM 172             
1 43927U 19002F   25310.13040534 -.00000022  00000+0 -15060-4 0  9999
2 43927  86.3940  86.8232 0002234  91.9166 268.2286 14.34217128356998
IRIDIUM 175             
1 43928U 19002G   25310.28808928  .00001636  00000+0  25547-3 0  9995
2 43928  86.1536  31.2146 0001839 114.2658 245.8751 14.72250480366440
